NORAD_CAT_ID,OBJECT_NAME,OBJECT_TYPE,EPOCH,MEAN_MOTION,ECCENTRICITY,INCLINATION,RA_OF_ASC_NODE,ARG_OF_PERICENTER,MEAN_ANOMALY,BSTAR,MEAN_MOTION_DOT,MEAN_MOTION_DDOT,TLE_LINE0,TLE_LINE1,TLE_LINE2,SEMIMAJOR_AXIS,PERIOD,APOGEE,PERIGEE,DECAYED
53538.0,STARLINK-4118,PAYLOAD,2024-04-16 19:54:13,15.08836253,0.0001293,53.2162,290.0022,82.1664,277.9475,0.00030683,4.598e-05,0.0,0 STARLINK-4118,1 53538U 22101M   24107.82932142  .00004598  00000-0  30683-3 0  9994,2 53538  53.2162 290.0022 0001293  82.1664 277.9475 15.08836253 91857,6917.892,95.438,540.651,538.862,0.0
53538.0,STARLINK-4118,PAYLOAD,2024-04-17 18:09:38,15.08838912,0.0001357,53.2154,285.8406,82.8586,277.256,0.00065691,0.00010182,0.0,0 STARLINK-4118,1 53538U 22101M   24108.75669060  .00010182  00000-0  65691-3 0  9996,2 53538  53.2154 285.8406 0001357  82.8586 277.2560 15.08838912 91994,6917.884,95.438,540.687,538.81,0.0
53538.0,STARLINK-4118,PAYLOAD,2024-04-18 14:49:38,15.08824685,0.0001284,53.2158,281.9735,71.0472,289.0659,-0.00041895,-6.946e-05,0.0,0 STARLINK-4118,1 53538U 22101M   24109.61781056 -.00006946  00000-0 -41895-3 0  9997,2 53538  53.2158 281.9735 0001284  71.0472 289.0659 15.08824685 92817,6917.927,95.439,540.68,538.904,0.0
53538.0,STARLINK-4118,PAYLOAD,2024-04-19 11:29:40,15.08839539,9.9e-05,53.2167,278.1025,69.0021,291.1077,0.00066288,0.00010277,0.0,0 STARLINK-4118,1 53538U 22101M   24110.47893529  .00010277  00000-0  66288-3 0  9995,2 53538  53.2167 278.1025 0000990  69.0021 291.1077 15.08839539 92257,6917.882,95.438,540.432,539.062,0.0
53538.0,STARLINK-4118,PAYLOAD,2024-04-19 14:40:26,15.08852033,0.0001241,53.2162,277.5112,87.404,272.7094,0.00084953,0.00013263,0.0,0 STARLINK-4118,1 53538U 22101M   24110.61141219  .00013263  00000-0  84953-3 0  9990,2 53538  53.2162 277.5112 0001241  87.4040 272.7094 15.08852033 92963,6917.844,95.437,540.567,538.85,0.0
53538.0,STARLINK-4118,PAYLOAD,2024-04-19 17:51:12,15.08869071,0.0001441,53.2164,276.9172,88.9221,271.1936,0.0017068,0.00027002,0.0,0 STARLINK-4118,1 53538U 22101M   24110.74389073  .00027002  00000-0  17068-2 0  9994,2 53538  53.2164 276.9172 0001441  88.9221 271.1936 15.08869071 92297,6917.792,95.436,540.653,538.66,0.0
53538.0,STARLINK-4118,PAYLOAD,2024-04-20 11:20:25,15.08878687,0.000153,53.217,273.6461,114.5694,245.5458,0.0011788,0.00018542,0.0,0 STARLINK-4118,1 53538U 22101M   24111.47251820  .00018542  00000-0  11788-2 0  9995,2 53538  53.2170 273.6461 0001530 114.5694 245.5458 15.08878687 92408,6917.762,95.435,540.686,538.569,0.0
53538.0,STARLINK-4118,PAYLOAD,2024-04-20 14:31:11,15.08846763,0.0001618,53.2165,273.0515,107.7104,252.4065,0.00044281,6.768e-05,0.0,0 STARLINK-4118,1 53538U 22101M   24111.60499837  .00006768  00000-0  44281-3 0  9994,2 53538  53.2165 273.0515 0001618 107.7104 252.4065 15.08846763 93113,6917.86,95.437,540.844,538.605,0.0
53538.0,STARLINK-4118,PAYLOAD,2024-04-20 17:41:58,15.08847287,0.0001623,53.2165,272.457,109.0863,251.0305,0.0012258,0.00019278,0.0,0 STARLINK-4118,1 53538U 22101M   24111.73747795  .00019278  00000-0  12258-2 0  9995,2 53538  53.2165 272.4570 0001623 109.0863 251.0305 15.08847287 92449,6917.858,95.437,540.846,538.6,0.0
53538.0,STARLINK-4118,PAYLOAD,2024-04-21 14:21:58,15.08851714,0.0001596,53.2156,268.584,104.4452,255.6718,0.00055339,8.533e-05,0.0,0 STARLINK-4118,1 53538U 22101M   24112.59859589  .00008533  00000-0  55339-3 0  9995,2 53538  53.2156 268.5840 0001596 104.4452 255.6718 15.08851714 93266,6917.845,95.437,540.814,538.605,0.0
53538.0,STARLINK-4118,PAYLOAD,2024-04-21 19:08:08,15.08846126,0.0001457,53.2165,267.6949,92.948,267.1679,-3.5415e-06,-3.44e-06,0.0,0 STARLINK-4118,1 53538U 22101M   24112.79731558 -.00000344  00000-0 -35415-5 0  9991,2 53538  53.2165 267.6949 0001457  92.9480 267.1679 15.08846126 92606,6917.862,95.437,540.735,538.719,0.0
53538.0,STARLINK-4118,PAYLOAD,2024-04-22 18:58:56,15.08822665,0.000152,53.2169,263.2357,97.0745,263.042,-0.00010611,-1.975e-05,0.0,0 STARLINK-4118,1 53538U 22101M   24113.79093278 -.00001975  00000-0 -10611-3 0  9992,2 53538  53.2169 263.2357 0001520  97.0745 263.0420 15.08822665 92753,6917.933,95.439,540.85,538.747,0.0
53538.0,STARLINK-4118,PAYLOAD,2024-04-23 14:03:34,15.08826886,0.0001483,53.2179,259.6693,91.7648,268.3514,7.6162e-05,9.24e-06,0.0,0 STARLINK-4118,1 53538U 22101M   24114.58581978  .00000924  00000-0  76162-4 0  9994,2 53538  53.2179 259.6693 0001483  91.7648 268.3514 15.08826886 93568,6917.92,95.438,540.811,538.76,0.0
53538.0,STARLINK-4118,PAYLOAD,2024-04-23 18:49:42,15.08848519,0.000141,53.2182,258.7745,82.0374,278.0778,0.00018322,2.63e-05,0.0,0 STARLINK-4118,1 53538U 22101M   24114.78452447  .00002630  00000-0  18322-3 0  9993,2 53538  53.2182 258.7745 0001410  82.0374 278.0778 15.08848519 92903,6917.854,95.437,540.695,538.744,0.0
53538.0,STARLINK-4118,PAYLOAD,2024-04-24 13:54:21,15.08839698,0.0001554,53.2192,255.1962,84.9776,275.1394,0.00013624,1.881e-05,0.0,0 STARLINK-4118,1 53538U 22101M   24115.57941431  .00001881  00000-0  13624-3 0  9994,2 53538  53.2192 255.1962 0001554  84.9776 275.1394 15.08839698 93712,6917.881,95.438,540.821,538.671,0.0
53538.0,STARLINK-4118,PAYLOAD,2024-04-24 15:29:44,15.0884267,0.0001555,53.2177,254.9069,94.0903,266.0267,0.00016693,2.37e-05,0.0,0 STARLINK-4118,1 53538U 22101M   24115.64565143  .00002370  00000-0  16693-3 0  9997,2 53538  53.2177 254.9069 0001555  94.0903 266.0267 15.08842670 93032,6917.872,95.437,540.813,538.661,0.0
53538.0,STARLINK-4118,PAYLOAD,2024-04-25 08:58:57,15.08864823,0.0001322,53.2169,251.6419,98.766,261.3481,0.00011657,1.569e-05,0.0,0 STARLINK-4118,1 53538U 22101M   24116.37427746  .00001569  00000-0  11657-3 0  9998,2 53538  53.2169 251.6419 0001322  98.7660 261.3481 15.08864823 93141,6917.805,95.436,540.584,538.755,0.0
53538.0,STARLINK-4118,PAYLOAD,2024-04-25 13:45:07,15.08855627,0.0001292,53.2183,250.7345,126.9024,233.2086,5.3973e-05,5.72e-06,0.0,0 STARLINK-4118,1 53538U 22101M   24116.57299993  .00000572  00000-0  53973-4 0  9992,2 53538  53.2183 250.7345 0001292 126.9024 233.2086 15.08855627 93869,6917.833,95.437,540.591,538.804,0.0
53538.0,STARLINK-4118,PAYLOAD,2024-04-25 15:20:30,15.08847561,0.0001185,53.2183,250.4426,117.2943,242.8169,-6.523e-06,-3.92e-06,0.0,0 STARLINK-4118,1 53538U 22101M   24116.63924641 -.00000392  00000-0 -65230-5 0  9996,2 53538  53.2183 250.4426 0001185 117.2943 242.8169 15.08847561 93181,6917.857,95.437,540.542,538.903,0.0
53538.0,STARLINK-4118,PAYLOAD,2024-04-26 12:00:32,15.08847582,0.00011,53.2176,246.5846,75.2889,284.8225,-0.000197,-3.422e-05,0.0,0 STARLINK-4118,1 53538U 22101M   24117.50037543 -.00003422  00000-0 -19700-3 0  9995,2 53538  53.2176 246.5846 0001100  75.2889 284.8225 15.08847582 93311,6917.857,95.437,540.483,538.961,0.0
53538.0,STARLINK-4118,PAYLOAD,2024-04-26 15:11:18,15.08853206,0.0001481,53.2187,245.9905,133.6914,226.4201,-0.00022045,-3.796e-05,0.0,0 STARLINK-4118,1 53538U 22101M   24117.63284981 -.00003796  00000-0 -22045-3 0  9999,2 53538  53.2187 245.9905 0001481 133.6914 226.4201 15.08853206 94027,6917.84,95.437,540.73,538.68,0.0
53538.0,STARLINK-4118,PAYLOAD,2024-04-27 13:26:42,15.0882725,0.0001045,53.2173,241.823,81.0578,279.0532,2.8944e-05,1.73e-06,0.0,0 STARLINK-4118,1 53538U 22101M   24118.56021978  .00000173  00000-0  28944-4 0  9996,2 53538  53.2173 241.8230 0001045  81.0578 279.0532 15.08827250 93475,6917.919,95.438,540.507,539.061,0.0
53538.0,STARLINK-4118,PAYLOAD,2024-04-27 15:02:06,15.08826818,0.0001053,53.2174,241.5266,87.8449,272.2663,4.5478e-05,4.36e-06,0.0,0 STARLINK-4118,1 53538U 22101M   24118.62645983  .00000436  00000-0  45478-4 0  9994,2 53538  53.2174 241.5266 0001053  87.8449 272.2663 15.08826818 94179,6917.921,95.438,540.514,539.057,0.0
53538.0,STARLINK-4118,PAYLOAD,2024-04-27 18:12:52,15.08825367,0.0001211,53.2188,240.9357,82.3265,277.7865,5.6316e-05,6.08e-06,0.0,0 STARLINK-4118,1 53538U 22101M   24118.75894174  .00000608  00000-0  56316-4 0  9990,2 53538  53.2188 240.9357 0001211  82.3265 277.7865 15.08825367 94194,6917.925,95.438,540.628,538.952,0.0
53538.0,STARLINK-4118,PAYLOAD,2024-04-28 14:52:54,15.08825435,0.0001373,53.216,237.0753,95.0316,265.0833,-7.0767e-05,-1.414e-05,0.0,0 STARLINK-4118,1 53538U 22101M   24119.62007512 -.00001414  00000-0 -70767-4 0  9993,2 53538  53.2160 237.0753 0001373  95.0316 265.0833 15.08825435 94324,6917.925,95.438,540.74,538.84,0.0
53538.0,STARLINK-4118,PAYLOAD,2024-04-29 00:25:12,15.08839101,0.000136,53.2194,235.2923,99.0532,261.0614,-9.4834e-06,-4.39e-06,0.0,0 STARLINK-4118,1 53538U 22101M   24120.01750485 -.00000439  00000-0 -94834-5 0  9990,2 53538  53.2194 235.2923 0001360  99.0532 261.0614 15.08839101 93697,6917.883,95.438,540.689,538.807,0.0
53538.0,STARLINK-4118,PAYLOAD,2024-04-29 14:43:40,15.0883363,0.0001298,53.219,232.6143,103.1701,256.9436,0.00015775,2.223e-05,0.0,0 STARLINK-4118,1 53538U 22101M   24120.61366592  .00002223  00000-0  15775-3 0  9994,2 53538  53.2190 232.6143 0001298 103.1701 256.9436 15.08833630 94476,6917.9,95.438,540.663,538.867,0.0
53538.0,STARLINK-4118,PAYLOAD,2024-04-30 00:15:58,15.08844195,0.0001301,53.2189,230.8296,100.8823,259.2316,0.00017699,2.53e-05,0.0,0 STARLINK-4118,1 53538U 22101M   24121.01109914  .00002530  00000-0  17699-3 0  9990,2 53538  53.2189 230.8296 0001301 100.8823 259.2316 15.08844195 93848,6917.868,95.437,540.633,538.833,0.0
53538.0,STARLINK-4118,PAYLOAD,2024-04-30 12:59:05,15.08829237,0.0001381,53.2202,228.4517,104.7195,255.395,0.00011747,1.582e-05,0.0,0 STARLINK-4118,1 53538U 22101M   24121.54103236  .00001582  00000-0  11747-3 0  9993,2 53538  53.2202 228.4517 0001381 104.7195 255.3950 15.08829237 93926,6917.913,95.438,540.734,538.823,0.0
53538.0,STARLINK-4118,PAYLOAD,2024-04-30 14:34:28,15.08835157,0.00012,53.2183,228.1516,102.1767,257.936,9.4642e-05,1.219e-05,0.0,0 STARLINK-4118,1 53538U 22101M   24121.60726953  .00001219  00000-0  94642-4 0  9990,2 53538  53.2183 228.1516 0001200 102.1767 257.9360 15.08835157 94626,6917.895,95.438,540.59,538.93,0.0
